{"type": "FeatureCollection", "features": [ {"type": "Feature", "properties": {"norad_id": 29919, "name": "FENGYUN 1C DEB", "group": "fengyun-1c-debris", "lat": 8.779341599685711, "lon": -35.593147890308664, "alt_km": 1045.3468885178163, "timestamp": "2025-12-14T20:40:32.043912+00:00", "meta": {"OBJECT_NAME": "FENGYUN 1C DEB", "OBJECT_ID": "1999-025HR", "EPOCH": "2025-12-14T05:06:14.755392", "MEAN_MOTION": 13.85123877, "ECCENTRICITY": 0.01372957, "INCLINATION": 98.4791, "RA_OF_ASC_NODE": 142.4999, "ARG_OF_PERICENTER": 339.7684, "MEAN_ANOMALY": 198.1141, "EPHEMERIS_TYPE": 0, "CLASSIFICATION_TYPE": "U", "NORAD_CAT_ID": 29919, "ELEMENT_SET_NO": 999, "REV_AT_EPOCH": 95555, "BSTAR": 0.00022761008, "MEAN_MOTION_DOT": 2.39e-06, "MEAN_MOTION_DDOT": 0}, "tle": {"line1": "1 29919U 99025HR  25348.21267078  .00000239  00000+0  22761-3 0  9994", "line2": "2 29919  98.4791 142.4999 0137295 339.7684 198.1141 13.85123877955554"}}, "geometry": {"type": "Point", "coordinates": [-35.593147890308664, 8.779341599685711]}}, {"type": "Feature", "properties": {"norad_id": 29920, "name": "FENGYUN 1C DEB", "group": "fengyun-1c-debris", "lat": -7.349983419959594, "lon": 22.10438904534165, "alt_km": 879.8224739140906, "timestamp": "2025-12-14T20:40:32.043922+00:00", "meta": {"OBJECT_NAME": "FENGYUN 1C DEB", "OBJECT_ID": "1999-025HS", "EPOCH": "2025-12-13T09:33:25.779456", "MEAN_MOTION": 14.03663429, "ECCENTRICITY": 0.01253602, "INCLINATION": 98.3912, "RA_OF_ASC_NODE": 201.8442, "ARG_OF_PERICENTER": 278.9627, "MEAN_ANOMALY": 79.737, "EPHEMERIS_TYPE": 0, "CLASSIFICATION_TYPE": "U", "NORAD_CAT_ID": 29920, "ELEMENT_SET_NO": 999, "REV_AT_EPOCH": 96297, "BSTAR": 0.0019672139, "MEAN_MOTION_DOT": 3.275e-05, "MEAN_MOTION_DDOT": 0}, "tle": {"line1": "1 29920U 99025HS  25347.39821504  .00003275  00000+0  19672-2 0  9993", "line2": "2 29920  98.3912 201.8442 0125360 278.9627  79.7370 14.03663429962979"}}, "geometry": {"type": "Point", "coordinates": [22.10438904534165, -7.349983419959594]}}, {"type": "Feature", "properties": {"norad_id": 29921, "name": "FENGYUN 1C DEB", "group": "fengyun-1c-debris", "lat": 45.85026915778763, "lon": -14.251083535855923, "alt_km": 834.6806553994966, "timestamp": "2025-12-14T20:40:32.043932+00:00", "meta": {"OBJECT_NAME": "FENGYUN 1C DEB", "OBJECT_ID": "1999-025HT", "EPOCH": "2025-12-14T00:13:53.925888", "MEAN_MOTION": 14.06645165, "ECCENTRICITY": 0.00464111, "INCLINATION": 98.7867, "RA_OF_ASC_NODE": 354.0896, "ARG_OF_PERICENTER": 66.2473, "MEAN_ANOMALY": 349.3323, "EPHEMERIS_TYPE": 0, "CLASSIFICATION_TYPE": "U", "NORAD_CAT_ID": 29921, "ELEMENT_SET_NO": 999, "REV_AT_EPOCH": 96894, "BSTAR": 0.0004206918, "MEAN_MOTION_DOT": 6.62e-06, "MEAN_MOTION_DDOT": 0}, "tle": {"line1": "1 29921U 99025HT  25348.00965192  .00000662  00000+0  42069-3 0  9999", "line2": "2 29921  98.7867 354.0896 0046411  66.2473 349.3323 14.06645165968940"}}, "geometry": {"type": "Point", "coordinates": [-14.251083535855923, 45.85026915778763]}}, {"type": "Feature", "properties": {"norad_id": 29922, "name": "FENGYUN 1C DEB", "group": "fengyun-1c-debris", "lat": 46.162912294628256, "lon": -124.05027424232316, "alt_km": 939.4625230148667, "timestamp": "2025-12-14T20:40:32.043942+00:00", "meta": {"OBJECT_NAME": "FENGYUN 1C DEB", "OBJECT_ID": "1999-025HU", "EPOCH": "2025-12-14T02:52:34.779072", "MEAN_MOTION": 13.98581309, "ECCENTRICITY": 0.00931522, "INCLINATION": 99.1356, "RA_OF_ASC_NODE": 45.5639, "ARG_OF_PERICENTER": 3.2127, "MEAN_ANOMALY": 356.9615, "EPHEMERIS_TYPE": 0, "CLASSIFICATION_TYPE": "U", "NORAD_CAT_ID": 29922, "ELEMENT_SET_NO": 999, "REV_AT_EPOCH": 96460, "BSTAR": 0.00010922269, "MEAN_MOTION_DOT": 1.18e-06, "MEAN_MOTION_DDOT": 0}, "tle": {"line1": "1 29922U 99025HU  25348.11984698  .00000118  00000+0  10922-3 0  9993", "line2": "2 29922  99.1356  45.5639 0093152   3.2127 356.9615 13.98581309964603"}}, "geometry": {"type": "Point", "coordinates": [-124.05027424232316, 46.162912294628256]}}, {"type": "Feature", "properties": {"norad_id": 29923, "name": "FENGYUN 1C DEB", "group": "fengyun-1c-debris", "lat": 81.30637945184067, "lon": -92.93757366055699, "alt_km": 834.9071913210691, "timestamp": "2025-12-14T20:40:32.043952+00:00", "meta": {"OBJECT_NAME": "FENGYUN 1C DEB", "OBJECT_ID": "1999-025HV", "EPOCH": "2025-12-14T06:42:48.682368", "MEAN_MOTION": 14.13895748, "ECCENTRICITY": 0.00177048, "INCLINATION": 98.6882, "RA_OF_ASC_NODE": 356.5284, "ARG_OF_PERICENTER": 164.9624, "MEAN_ANOMALY": 205.7638, "EPHEMERIS_TYPE": 0, "CLASSIFICATION_TYPE": "U", "NORAD_CAT_ID": 29923, "ELEMENT_SET_NO": 999, "REV_AT_EPOCH": 97297, "BSTAR": 0.00059284933, "MEAN_MOTION_DOT": 1.083e-05, "MEAN_MOTION_DDOT": 0}, "tle": {"line1": "1 29923U 99025HV  25348.27973012  .00001083  00000+0  59285-3 0  9996", "line2": "2 29923  98.6882 356.5284 0017704 164.9624 205.7638 14.13895748972977"}}, "geometry": {"type": "Point", "coordinates": [-92.93757366055699, 81.30637945184067]}}, {"type": "Feature", "properties": {"norad_id": 29924, "name": "FENGYUN 1C DEB", "group": "fengyun-1c-debris", "lat": 26.029684202492284, "lon": -2.552653030929257, "alt_km": 875.4487059408548, "timestamp": "2025-12-14T20:40:32.043962+00:00", "meta": {"OBJECT_NAME": "FENGYUN 1C DEB", "OBJECT_ID": "1999-025HW", "EPOCH": "2025-12-14T06:59:26.814048", "MEAN_MOTION": 14.0889046, "ECCENTRICITY": 0.00259344, "INCLINATION": 98.7343, "RA_OF_ASC_NODE": 1.2006, "ARG_OF_PERICENTER": 253.1138, "MEAN_ANOMALY": 122.6912, "EPHEMERIS_TYPE": 0, "CLASSIFICATION_TYPE": "U", "NORAD_CAT_ID": 29924, "ELEMENT_SET_NO": 999, "REV_AT_EPOCH": 97230, "BSTAR": 4.3442884e-05, "MEAN_MOTION_DOT": 3.2e-07, "MEAN_MOTION_DDOT": 0}, "tle": {"line1": "1 29924U 99025HW  25348.29128257  .00000032  00000+0  43443-4 0  9995", "line2": "2 29924  98.7343   1.2006 0025934 253.1138 122.6912 14.08890460972301"}}, "geometry": {"type": "Point", "coordinates": [-2.552653030929257, 26.029684202492284]}}, {"type": "Feature", "properties": {"norad_id": 29926, "name": "FENGYUN 1C DEB", "group": "fengyun-1c-debris", "lat": 78.88879884426062, "lon": -70.20946981982482, "alt_km": 923.6137727120376, "timestamp": "2025-12-14T20:40:32.043977+00:00", "meta": {"OBJECT_NAME": "FENGYUN 1C DEB", "OBJECT_ID": "1999-025HY", "EPOCH": "2025-12-13T22:38:19.533696", "MEAN_MOTION": 14.33398495, "ECCENTRICITY": 0.02481658, "INCLINATION": 98.2834, "RA_OF_ASC_NODE": 336.7942, "ARG_OF_PERICENTER": 296.636, "MEAN_ANOMALY": 89.0552, "EPHEMERIS_TYPE": 0, "CLASSIFICATION_TYPE": "U", "NORAD_CAT_ID": 29926, "ELEMENT_SET_NO": 999, "REV_AT_EPOCH": 98598, "BSTAR": 0.00049760427, "MEAN_MOTION_DOT": 1.884e-05, "MEAN_MOTION_DDOT": 0}, "tle": {"line1": "1 29926U 99025HY  25347.94328164  .00001884  00000+0  49760-3 0  9990", "line2": "2 29926  98.2834 336.7942 0248165 296.6360  89.0552 14.33398495985983"}}, "geometry": {"type": "Point", "coordinates": [-70.20946981982482, 78.88879884426062]}}, {"type": "Feature", "properties": {"norad_id": 29927, "name": "FENGYUN 1C DEB", "group": "fengyun-1c-debris", "lat": 15.580034270245207, "lon": -164.37495678975824, "alt_km": 637.2862048110219, "timestamp": "2025-12-14T20:40:32.043988+00:00", "meta": {"OBJECT_NAME": "FENGYUN 1C DEB", "OBJECT_ID": "1999-025HZ", "EPOCH": "2025-12-14T00:31:43.697856", "MEAN_MOTION": 14.746379, "ECCENTRICITY": 0.00178127, "INCLINATION": 99.0856, "RA_OF_ASC_NODE": 12.127, "ARG_OF_PERICENTER": 206.3383, "MEAN_ANOMALY": 184.0763, "EPHEMERIS_TYPE": 0, "CLASSIFICATION_TYPE": "U", "NORAD_CAT_ID": 29927, "ELEMENT_SET_NO": 999, "REV_AT_EPOCH": 98666, "BSTAR": 0.0031345909, "MEAN_MOTION_DOT": 0.00020961, "MEAN_MOTION_DDOT": 0}, "tle": {"line1": "1 29927U 99025HZ  25348.02203354  .00020961  00000+0  31346-2 0  9991", "line2": "2 29927  99.0856  12.1270 0017812 206.3383 184.0763 14.74637900986660"}}, "geometry": {"type": "Point", "coordinates": [-164.37495678975824, 15.580034270245207]}}, {"type": "Feature", "properties": {"norad_id": 29928, "name": "FENGYUN 1C DEB", "group": "fengyun-1c-debris", "lat": -26.083280445221842, "lon": 17.92930757501688, "alt_km": 998.2395431604991, "timestamp": "2025-12-14T20:40:32.043998+00:00", "meta": {"OBJECT_NAME": "FENGYUN 1C DEB", "OBJECT_ID": "1999-025JA", "EPOCH": "2025-12-14T00:20:08.356704", "MEAN_MOTION": 13.88086755, "ECCENTRICITY": 0.01433721, "INCLINATION": 99.5849, "RA_OF_ASC_NODE": 12.3145, "ARG_OF_PERICENTER": 99.7148, "MEAN_ANOMALY": 322.5004, "EPHEMERIS_TYPE": 0, "CLASSIFICATION_TYPE": "U", "NORAD_CAT_ID": 29928, "ELEMENT_SET_NO": 999, "REV_AT_EPOCH": 95509, "BSTAR": 0.000796683, "MEAN_MOTION_DOT": 9.85e-06, "MEAN_MOTION_DDOT": 0}, "tle": {"line1": "1 29928U 99025JA  25348.01398561  .00000985  00000+0  79668-3 0  9990", "line2": "2 29928  99.5849  12.3145 0143372  99.7148 322.5004 13.88086755955095"}}, "geometry": {"type": "Point", "coordinates": [17.92930757501688, -26.083280445221842]}}, {"type": "Feature", "properties": {"norad_id": 29929, "name": "FENGYUN 1C DEB", "group": "fengyun-1c-debris", "lat": -58.393245261814876, "lon": -77.73357423651755, "alt_km": 957.1102138789511, "timestamp": "2025-12-14T20:40:32.044008+00:00", "meta": {"OBJECT_NAME": "FENGYUN 1C DEB", "OBJECT_ID": "1999-025JB", "EPOCH": "2025-12-14T00:28:54.401376", "MEAN_MOTION": 14.01365786, "ECCENTRICITY": 0.01312419, "INCLINATION": 98.6236, "RA_OF_ASC_NODE": 267.1945, "ARG_OF_PERICENTER": 172.631, "MEAN_ANOMALY": 204.3221, "EPHEMERIS_TYPE": 0, "CLASSIFICATION_TYPE": "U", "NORAD_CAT_ID": 29929, "ELEMENT_SET_NO": 999, "REV_AT_EPOCH": 95974, "BSTAR": 0.001178762, "MEAN_MOTION_DOT": 1.875e-05, "MEAN_MOTION_DDOT": 0}, "tle": {"line1": "1 29929U 99025JB  25348.02007409  .00001875  00000+0  11788-2 0  9997", "line2": "2 29929  98.6236 267.1945 0131241 172.6310 204.3221 14.01365786959742"}}, "geometry": {"type": "Point", "coordinates": [-77.73357423651755, -58.393245261814876]}}]}